NORAD_CAT_ID,OBJECT_NAME,OBJECT_TYPE,EPOCH,MEAN_MOTION,ECCENTRICITY,INCLINATION,RA_OF_ASC_NODE,ARG_OF_PERICENTER,MEAN_ANOMALY,BSTAR,MEAN_MOTION_DOT,MEAN_MOTION_DDOT,TLE_LINE0,TLE_LINE1,TLE_LINE2,SEMIMAJOR_AXIS,PERIOD,APOGEE,PERIGEE,DECAYED
55299.0,STARLINK-5270,PAYLOAD,2024-08-13 21:29:49,14.98295282,0.0002774,69.9994,28.5352,260.7086,99.376,-0.00038257,-4.651e-05,0.0,0 STARLINK-5270,1 55299U 23010AG  24226.89571443 -.00004651  00000-0 -38257-3 0  9999,2 55299  69.9994  28.5352 0002774 260.7086  99.3760 14.98295282 88350,6950.3,96.109,574.093,570.237,0.0
55299.0,STARLINK-5270,PAYLOAD,2024-08-14 03:54:19,14.9831672,0.0004981,70.005,27.859,267.3488,92.7101,-0.00011136,-1.421e-05,0.0,0 STARLINK-5270,1 55299U 23010AG  24227.16273080 -.00001421  00000-0 -11136-3 0  9995,2 55299  70.0050  27.8590 0004981 267.3488  92.7101 14.98316720 87203,6950.234,96.108,575.561,568.637,0.0
55299.0,STARLINK-5270,PAYLOAD,2024-08-14 13:31:07,14.98334598,0.0002854,70.0014,26.8509,271.4656,88.6176,9.5685e-06,2.1e-07,0.0,0 STARLINK-5270,1 55299U 23010AG  24227.56328640  .00000021  00000-0  95685-5 0  9998,2 55299  70.0014  26.8509 0002854 271.4656  88.6176 14.98334598 87267,6950.179,96.107,574.027,570.06,0.0
55299.0,STARLINK-5270,PAYLOAD,2024-08-14 19:55:40,14.98336351,0.0002762,70.0015,26.1777,270.3348,89.7495,3.7929e-05,3.6e-06,0.0,0 STARLINK-5270,1 55299U 23010AG  24227.83032451  .00000360  00000-0  37929-4 0  9992,2 55299  70.0015  26.1777 0002762 270.3348  89.7495 14.98336351 88493,6950.173,96.107,573.958,570.119,0.0
55299.0,STARLINK-5270,PAYLOAD,2024-08-15 03:56:20,14.98330032,0.0002348,70.0013,25.3358,271.5146,88.5744,0.00027805,3.226e-05,0.0,0 STARLINK-5270,1 55299U 23010AG  24228.16412273  .00003226  00000-0  27805-3 0  9998,2 55299  70.0013  25.3358 0002348 271.5146  88.5744 14.98330032 88546,6950.193,96.107,573.69,570.426,0.0
55299.0,STARLINK-5270,PAYLOAD,2024-08-15 16:45:24,14.98332513,0.0003476,70.0013,23.9892,272.3746,87.7015,0.00043336,5.082e-05,0.0,0 STARLINK-5270,1 55299U 23010AG  24228.69819513  .00005082  00000-0  43336-3 0  9993,2 55299  70.0013  23.9892 0003476 272.3746  87.7015 14.98332513 87436,6950.185,96.107,574.466,569.634,0.0
55299.0,STARLINK-5270,PAYLOAD,2024-08-16 10:22:53,14.98340214,0.0002946,70.0017,22.1381,269.4377,90.6445,-2.8542e-05,-4.34e-06,0.0,0 STARLINK-5270,1 55299U 23010AG  24229.43256194 -.00000434  00000-0 -28542-4 0  9997,2 55299  70.0017  22.1381 0002946 269.4377  90.6445 14.98340214 87541,6950.161,96.106,574.074,569.979,0.0
55299.0,STARLINK-5270,PAYLOAD,2024-08-16 19:59:41,14.98342563,0.0002952,70.0018,21.1281,269.3196,90.7625,-2.0191e-05,-3.34e-06,0.0,0 STARLINK-5270,1 55299U 23010AG  24229.83311664 -.00000334  00000-0 -20191-4 0  9996,2 55299  70.0018  21.1281 0002952 269.3196  90.7625 14.98342563 88793,6950.154,96.106,574.071,569.967,0.0
55299.0,STARLINK-5270,PAYLOAD,2024-08-17 12:01:01,14.98338576,0.0003114,70.0025,19.4443,267.9357,92.1446,-0.00016354,-2.044e-05,0.0,0 STARLINK-5270,1 55299U 23010AG  24230.50071660 -.00002044  00000-0 -16354-3 0  9996,2 55299  70.0025  19.4443 0003114 267.9357  92.1446 14.98338576 87701,6950.166,96.106,574.196,569.867,0.0
55299.0,STARLINK-5270,PAYLOAD,2024-08-18 13:39:10,14.98332973,0.0002997,70.0019,16.7514,267.28,92.8016,-1.9131e-05,-3.21e-06,0.0,0 STARLINK-5270,1 55299U 23010AG  24231.56887073 -.00000321  00000-0 -19131-4 0  9999,2 55299  70.0019  16.7514 0002997 267.2800  92.8016 14.98332973 87869,6950.184,96.107,574.132,569.966,0.0
55299.0,STARLINK-5270,PAYLOAD,2024-08-18 20:03:42,14.98337136,0.0003041,70.0017,16.0787,264.8991,95.1821,-1.8079e-05,-3.09e-06,0.0,0 STARLINK-5270,1 55299U 23010AG  24231.83590689 -.00000309  00000-0 -18079-4 0  9999,2 55299  70.0017  16.0787 0003041 264.8991  95.1821 14.98337136 89090,6950.171,96.107,574.149,569.922,0.0
55299.0,STARLINK-5270,PAYLOAD,2024-08-19 10:28:55,14.98325943,0.0002976,70.0018,14.5637,264.7826,95.2994,-1.4357e-05,-2.64e-06,0.0,0 STARLINK-5270,1 55299U 23010AG  24232.43675297 -.00000264  00000-0 -14357-4 0  9990,2 55299  70.0018  14.5637 0002976 264.7826  95.2994 14.98325943 89185,6950.205,96.107,574.139,570.002,0.0
55299.0,STARLINK-5270,PAYLOAD,2024-08-20 13:43:12,14.98331578,0.0003028,70.0013,11.7015,271.6914,88.3898,-9.7889e-06,-2.1e-06,0.0,0 STARLINK-5270,1 55299U 23010AG  24233.57166917 -.00000210  00000-0 -97889-5 0  9993,2 55299  70.0013  11.7015 0003028 271.6914  88.3898 14.98331578 88167,6950.188,96.107,574.158,569.948,0.0
55299.0,STARLINK-5270,PAYLOAD,2024-08-21 13:45:13,14.98327618,0.0002831,70.0018,9.1777,266.8858,93.1977,-9.3645e-06,-2.05e-06,0.0,0 STARLINK-5270,1 55299U 23010AG  24234.57307062 -.00000205  00000-0 -93645-5 0  9992,2 55299  70.0018   9.1777 0002831 266.8858  93.1977 14.98327618 88311,6950.2,96.107,574.033,570.098,0.0
55299.0,STARLINK-5270,PAYLOAD,2024-08-21 18:33:37,14.98327821,0.0002839,70.0018,8.6727,267.1692,92.9142,-8.0384e-06,-1.89e-06,0.0,0 STARLINK-5270,1 55299U 23010AG  24234.77335065 -.00000189  00000-0 -80384-5 0  9995,2 55299  70.0018   8.6727 0002839 267.1692  92.9142 14.98327821 89530,6950.2,96.107,574.038,570.091,0.0
